start=new Date('2022-07-07T00:00:00.000Z').valueOf();
sats=[{"MEAN_MOTION_DDOT":"0.0000000000000","OBJECT_TYPE":"PAYLOAD","EPOCH":"2022-07-06T14:00:01.000224","DECAY_DATE":null,"BSTAR":"-0.00003982100000","MEAN_MOTION_DOT":"-0.00006207","CENTER_NAME":"EARTH","RCS_SIZE":"LARGE","SEMIMAJOR_AXIS":"6727.888","TLE_LINE2":"2 52463  53.2166 323.5678 0002178  23.6135 359.6258 15.73202392  1303","OBJECT_ID":"2022-049N","ARG_OF_PERICENTER":"23.6135","TIME_SYSTEM":"UTC","MEAN_MOTION":"15.73202392","RA_OF_ASC_NODE":"323.5678","REF_FRAME":"TEME","MEAN_ANOMALY":"359.6258","ECCENTRICITY":"0.00021780","TLE_LINE1":"1 52463U 22049N   22187.58334491 -.00006207  00000-0 -39821-4 0  9998","PERIAPSIS":"348.288","GP_ID":"207542259","LAUNCH_DATE":"2022-05-06","OBJECT_NAME":"STARLINK-3885","EPHEMERIS_TYPE":"0","SITE":"AFETR","INCLINATION":"53.2166","COUNTRY_CODE":"US","ELEMENT_SET_NO":"999","APOAPSIS":"351.219","REV_AT_EPOCH":"130","MEAN_ELEMENT_THEORY":"SGP4","FILE":"3508782","NORAD_CAT_ID":"52463","PERIOD":"91.533","CLASSIFICATION_TYPE":"U"},{"INCLINATION":"53.2173","SITE":"AFETR","EPHEMERIS_TYPE":"0","LAUNCH_DATE":"2022-05-06","OBJECT_NAME":"STARLINK-3904","FILE":"3508745","NORAD_CAT_ID":"52464","PERIOD":"93.588","CLASSIFICATION_TYPE":"U","APOAPSIS":"451.553","ELEMENT_SET_NO":"999","REV_AT_EPOCH":"978","MEAN_ELEMENT_THEORY":"SGP4","COUNTRY_CODE":"US","ECCENTRICITY":"0.00021460","MEAN_ANOMALY":"86.8328","REF_FRAME":"TEME","RA_OF_ASC_NODE":"325.1940","MEAN_MOTION":"15.38655149","GP_ID":"207517166","PERIAPSIS":"448.622","TLE_LINE1":"1 52464U 22049P   22187.66667824 -.01070064  00000-0 -30059-1 0  9991","MEAN_MOTION_DOT":"-0.01070064","BSTAR":"-0.03005900000000","TIME_SYSTEM":"UTC","ARG_OF_PERICENTER":"28.9660","TLE_LINE2":"2 52464  53.2173 325.1940 0002146  28.9660  86.8328 15.38655149  9788","OBJECT_ID":"2022-049P","SEMIMAJOR_AXIS":"6828.222","RCS_SIZE":"LARGE","CENTER_NAME":"EARTH","EPOCH":"2022-07-06T16:00:00.999936","OBJECT_TYPE":"PAYLOAD","MEAN_MOTION_DDOT":"0.0000000000000","DECAY_DATE":null},{"DECAY_DATE":null,"OBJECT_TYPE":"PAYLOAD","EPOCH":"2022-07-06T22:00:00.999936","MEAN_MOTION_DDOT":"0.0000000000000","ARG_OF_PERICENTER":"21.0972","TIME_SYSTEM":"UTC","OBJECT_ID":"2022-049Q","TLE_LINE2":"2 52465  53.2163 321.9121 0002540  21.0972  92.3187 15.73200612  9854","SEMIMAJOR_AXIS":"6727.893","RCS_SIZE":"LARGE","CENTER_NAME":"EARTH","BSTAR":"-0.00004436500000","MEAN_MOTION_DOT":"-0.00006844","GP_ID":"207544909","PERIAPSIS":"348.050","TLE_LINE1":"1 52465U 22049Q   22187.91667824 -.00006844  00000-0 -44365-4 0  9992","MEAN_ANOMALY":"92.3187","ECCENTRICITY":"0.00025400","REF_FRAME":"TEME","RA_OF_ASC_NODE":"321.9121","MEAN_MOTION":"15.73200612","PERIOD":"91.533","NORAD_CAT_ID":"52465","CLASSIFICATION_TYPE":"U","FILE":"3508887","REV_AT_EPOCH":"985","MEAN_ELEMENT_THEORY":"SGP4","APOAPSIS":"351.467","ELEMENT_SET_NO":"999","COUNTRY_CODE":"US","INCLINATION":"53.2163","SITE":"AFETR","EPHEMERIS_TYPE":"0","OBJECT_NAME":"STARLINK-3863","LAUNCH_DATE":"2022-05-06"},{"MEAN_MOTION_DOT":"-0.01069711","BSTAR":"-0.02918500000000","ARG_OF_PERICENTER":"33.9615","TIME_SYSTEM":"UTC","TLE_LINE2":"2 52466  53.2173 325.2261 0001999  33.9615  99.5252 15.39539548  9780","OBJECT_ID":"2022-049R","RCS_SIZE":"LARGE","SEMIMAJOR_AXIS":"6825.607","CENTER_NAME":"EARTH","EPOCH":"2022-07-06T16:00:00.999936","OBJECT_TYPE":"PAYLOAD","MEAN_MOTION_DDOT":"0.0000000000000","DECAY_DATE":null,"INCLINATION":"53.2173","SITE":"AFETR","EPHEMERIS_TYPE":"0","LAUNCH_DATE":"2022-05-06","OBJECT_NAME":"STARLINK-3840","FILE":"3508745","PERIOD":"93.534","CLASSIFICATION_TYPE":"U","NORAD_CAT_ID":"52466","ELEMENT_SET_NO":"999","APOAPSIS":"448.836","REV_AT_EPOCH":"978","MEAN_ELEMENT_THEORY":"SGP4","COUNTRY_CODE":"US","ECCENTRICITY":"0.00019990","MEAN_ANOMALY":"99.5252","REF_FRAME":"TEME","MEAN_MOTION":"15.39539548","RA_OF_ASC_NODE":"325.2261","GP_ID":"207516944","PERIAPSIS":"446.107","TLE_LINE1":"1 52466U 22049R   22187.66667824 -.01069711  00000-0 -29185-1 0  9998"},{"MEAN_MOTION":"15.39244698","RA_OF_ASC_NODE":"325.2156","REF_FRAME":"TEME","MEAN_ANOMALY":"99.5279","ECCENTRICITY":"0.00022170","TLE_LINE1":"1 52467U 22049S   22187.66667824 -.01069734  00000-0 -29470-1 0  9991","PERIAPSIS":"446.830","GP_ID":"207517168","OBJECT_NAME":"STARLINK-3873","LAUNCH_DATE":"2022-05-06","EPHEMERIS_TYPE":"0","SITE":"AFETR","INCLINATION":"53.2173","COUNTRY_CODE":"US","REV_AT_EPOCH":"978","MEAN_ELEMENT_THEORY":"SGP4","APOAPSIS":"449.857","ELEMENT_SET_NO":"999","PERIOD":"93.552","CLASSIFICATION_TYPE":"U","NORAD_CAT_ID":"52467","FILE":"3508745","MEAN_MOTION_DDOT":"0.0000000000000","OBJECT_TYPE":"PAYLOAD","EPOCH":"2022-07-06T16:00:00.999936","DECAY_DATE":null,"BSTAR":"-0.02947000000000","MEAN_MOTION_DOT":"-0.01069734","CENTER_NAME":"EARTH","SEMIMAJOR_AXIS":"6826.479","RCS_SIZE":"LARGE","OBJECT_ID":"2022-049S","TLE_LINE2":"2 52467  53.2173 325.2156 0002217  28.2001  99.5279 15.39244698  9782","ARG_OF_PERICENTER":"28.2001","TIME_SYSTEM":"UTC"},{"CENTER_NAME":"EARTH","RCS_SIZE":"LARGE","SEMIMAJOR_AXIS":"6822.431","OBJECT_ID":"2022-049T","TLE_LINE2":"2 52468  53.2176 325.6498 0001878  29.6631  17.8620 15.40614742  1301","TIME_SYSTEM":"UTC","ARG_OF_PERICENTER":"29.6631","MEAN_MOTION_DOT":"-0.01071044","BSTAR":"-0.02820000000000","DECAY_DATE":null,"MEAN_MOTION_DDOT":"0.0000000000000","EPOCH":"2022-07-06T14:00:01.000224","OBJECT_TYPE":"PAYLOAD","COUNTRY_CODE":"US","REV_AT_EPOCH":"130","MEAN_ELEMENT_THEORY":"SGP4","APOAPSIS":"445.577","ELEMENT_SET_NO":"999","PERIOD":"93.469","NORAD_CAT_ID":"52468","CLASSIFICATION_TYPE":"U","FILE":"3508782","OBJECT_NAME":"STARLINK-3864","LAUNCH_DATE":"2022-05-06","EPHEMERIS_TYPE":"0","SITE":"AFETR","INCLINATION":"53.2176","TLE_LINE1":"1 52468U 22049T   22187.58334491 -.01071044  00000-0 -28200-1 0  9991","PERIAPSIS":"443.015","GP_ID":"207542014","RA_OF_ASC_NODE":"325.6498","MEAN_MOTION":"15.40614742","REF_FRAME":"TEME","ECCENTRICITY":"0.00018780","MEAN_ANOMALY":"17.8620"},{"BSTAR":"-0.02875900000000","MEAN_MOTION_DOT":"-0.01071012","TIME_SYSTEM":"UTC","ARG_OF_PERICENTER":"33.9637","OBJECT_ID":"2022-049U","TLE_LINE2":"2 52469  53.2175 325.6290 0001707  33.9637   2.9081 15.40025068  1309","RCS_SIZE":"LARGE","SEMIMAJOR_AXIS":"6824.172","CENTER_NAME":"EARTH","EPOCH":"2022-07-06T14:00:01.000224","OBJECT_TYPE":"PAYLOAD","MEAN_MOTION_DDOT":"0.0000000000000","DECAY_DATE":null,"INCLINATION":"53.2175","SITE":"AFETR","EPHEMERIS_TYPE":"0","OBJECT_NAME":"STARLINK-3828","LAUNCH_DATE":"2022-05-06","NORAD_CAT_ID":"52469","PERIOD":"93.505","CLASSIFICATION_TYPE":"U","FILE":"3508782","REV_AT_EPOCH":"130","MEAN_ELEMENT_THEORY":"SGP4","APOAPSIS":"447.202","ELEMENT_SET_NO":"999","COUNTRY_CODE":"US","ECCENTRICITY":"0.00017070","MEAN_ANOMALY":"2.9081","REF_FRAME":"TEME","RA_OF_ASC_NODE":"325.6290","MEAN_MOTION":"15.40025068","GP_ID":"207541817","PERIAPSIS":"444.872","TLE_LINE1":"1 52469U 22049R   22187.58334491 -.01071012  00000-0 -28759-1 0  9996"},{"MEAN_MOTION":"15.41204498","RA_OF_ASC_NODE":"325.6704","REF_FRAME":"TEME","ECCENTRICITY":"0.00018090","MEAN_ANOMALY":"25.3454","TLE_LINE1":"1 52470U 22049V   22187.58334491 -.01071139  00000-0 -27653-1 0  9990","PERIAPSIS":"441.321","GP_ID":"207542458","LAUNCH_DATE":"2022-05-06","OBJECT_NAME":"STARLINK-3859","EPHEMERIS_TYPE":"0","SITE":"AFETR","INCLINATION":"53.2176","COUNTRY_CODE":"US","ELEMENT_SET_NO":"999","APOAPSIS":"443.789","REV_AT_EPOCH":"130","MEAN_ELEMENT_THEORY":"SGP4","FILE":"3508782","PERIOD":"93.433","NORAD_CAT_ID":"52470","CLASSIFICATION_TYPE":"U","MEAN_MOTION_DDOT":"0.0000000000000","OBJECT_TYPE":"PAYLOAD","EPOCH":"2022-07-06T14:00:01.000224","DECAY_DATE":null,"MEAN_MOTION_DOT":"-0.01071139","BSTAR":"-0.02765300000000","CENTER_NAME":"EARTH","SEMIMAJOR_AXIS":"6820.690","RCS_SIZE":"LARGE","TLE_LINE2":"2 52470  53.2176 325.6704 0001809  32.2835  25.3454 15.41204498  1307","OBJECT_ID":"2022-049V","ARG_OF_PERICENTER":"32.2835","TIME_SYSTEM":"UTC"},{"REV_AT_EPOCH":"982","MEAN_ELEMENT_THEORY":"SGP4","APOAPSIS":"448.770","ELEMENT_SET_NO":"999","CLASSIFICATION_TYPE":"U","PERIOD":"93.533","NORAD_CAT_ID":"52471","FILE":"3508887","COUNTRY_CODE":"US","SITE":"AFETR","INCLINATION":"53.2172","OBJECT_NAME":"STARLINK-3862","LAUNCH_DATE":"2022-05-06","EPHEMERIS_TYPE":"0","PERIAPSIS":"446.057","GP_ID":"207544616","TLE_LINE1":"1 52471U 22049W   22187.91667824 -.01068329  00000-0 -29125-1 0  9990","ECCENTRICITY":"0.00019870","MEAN_ANOMALY":"62.4278","RA_OF_ASC_NODE":"324.0692","MEAN_MOTION":"15.39559351","REF_FRAME":"TEME","OBJECT_ID":"2022-049W","TLE_LINE2":"2 52471  53.2172 324.0692 0001987  28.7957  62.4278 15.39559351  9824","TIME_SYSTEM":"UTC","ARG_OF_PERICENTER":"28.7957","CENTER_NAME":"EARTH","RCS_SIZE":"LARGE","SEMIMAJOR_AXIS":"6825.548","BSTAR":"-0.02912500000000","MEAN_MOTION_DOT":"-0.01068329","DECAY_DATE":null,"OBJECT_TYPE":"PAYLOAD","EPOCH":"2022-07-06T22:00:00.999936","MEAN_MOTION_DDOT":"0.0000000000000"},{"COUNTRY_CODE":"US","FILE":"3508745","NORAD_CAT_ID":"52472","PERIOD":"93.428","CLASSIFICATION_TYPE":"U","ELEMENT_SET_NO":"999","APOAPSIS":"443.773","REV_AT_EPOCH":"978","MEAN_ELEMENT_THEORY":"SGP4","EPHEMERIS_TYPE":"0","LAUNCH_DATE":"2022-05-06","OBJECT_NAME":"STARLINK-3881","INCLINATION":"53.2175","SITE":"AFETR","TLE_LINE1":"1 52472U 22049X   22187.66667824 -.01069036  00000-0 -27508-1 0  9992","GP_ID":"207516946","PERIAPSIS":"440.803","REF_FRAME":"TEME","RA_OF_ASC_NODE":"325.2864","MEAN_MOTION":"15.41295006","MEAN_ANOMALY":"135.5292","ECCENTRICITY":"0.00021770","SEMIMAJOR_AXIS":"6820.423","RCS_SIZE":"LARGE","CENTER_NAME":"EARTH","TIME_SYSTEM":"UTC","ARG_OF_PERICENTER":"30.3079","TLE_LINE2":"2 52472  53.2175 325.2864 0002177  30.3079 135.5292 15.41295006  9788","OBJECT_ID":"2022-049X","MEAN_MOTION_DOT":"-0.01069036","BSTAR":"-0.02750800000000","DECAY_DATE":null,"MEAN_MOTION_DDOT":"0.0000000000000","OBJECT_TYPE":"PAYLOAD","EPOCH":"2022-07-06T16:00:00.999936"}];
